[{"OBJECT_NAME":"STARLINK-4627","OBJECT_ID":"2022-107M","EPOCH":"2026-03-09T19:14:58.575840","MEAN_MOTION":15.08844904,"ECCENTRICITY":0.00013873,"INCLINATION":53.2176,"RA_OF_ASC_NODE":248.4218,"ARG_OF_PERICENTER":97.9285,"MEAN_ANOMALY":262.1865,"EPHEMERIS_TYPE":0,"CLASSIFICATION_TYPE":"U","NORAD_CAT_ID":53711,"ELEMENT_SET_NO":999,"REV_AT_EPOCH":19449,"BSTAR":-2.6948948e-5,"MEAN_MOTION_DOT":-7.17e-6,"MEAN_MOTION_DDOT":0},{"OBJECT_NAME":"CZ-3C DEB","OBJECT_ID":"2012-008Y","EPOCH":"2026-03-09T17:25:27.825600","MEAN_MOTION":2.12256096,"ECCENTRICITY":0.72970115,"INCLINATION":17.8585,"RA_OF_ASC_NODE":104.8874,"ARG_OF_PERICENTER":122.3893,"MEAN_ANOMALY":328.2155,"EPHEMERIS_TYPE":0,"CLASSIFICATION_TYPE":"U","NORAD_CAT_ID":40858,"ELEMENT_SET_NO":999,"REV_AT_EPOCH":8710,"BSTAR":0.00038555983,"MEAN_MOTION_DOT":2.4e-7,"MEAN_MOTION_DDOT":0}]
